[{"OBJECT_NAME":"SHIYAN-1 (SY-1)","OBJECT_ID":"2004-012A","EPOCH":"2026-03-09T17:40:34.066560","MEAN_MOTION":15.31043463,"ECCENTRICITY":0.00058726,"INCLINATION":97.8764,"RA_OF_ASC_NODE":140.5238,"ARG_OF_PERICENTER":23.6952,"MEAN_ANOMALY":336.4557,"EPHEMERIS_TYPE":0,"CLASSIFICATION_TYPE":"U","NORAD_CAT_ID":28220,"ELEMENT_SET_NO":999,"REV_AT_EPOCH":19586,"BSTAR":0.00054854449,"MEAN_MOTION_DOT":0.00016393,"MEAN_MOTION_DDOT":0},{"OBJECT_NAME":"STARLINK-31470","OBJECT_ID":"2024-076F","EPOCH":"2026-03-09T05:48:55.980576","MEAN_MOTION":15.27568468,"ECCENTRICITY":0.00015179,"INCLINATION":43.0015,"RA_OF_ASC_NODE":8.1268,"ARG_OF_PERICENTER":254.4295,"MEAN_ANOMALY":105.639,"EPHEMERIS_TYPE":0,"CLASSIFICATION_TYPE":"U","NORAD_CAT_ID":59569,"ELEMENT_SET_NO":999,"REV_AT_EPOCH":10638,"BSTAR":-0.00012461591,"MEAN_MOTION_DOT":-3.688e-5,"MEAN_MOTION_DDOT":0}]
